sat00893
1 00893U 64063A   20046.92919527  .00000023  00000-0  19121-4 0  9998
2 00893  90.1557  29.1920 0026722 135.3631 242.4568 13.56125287738495
